[{"OBJECT_NAME":"ONEWEB-0362","OBJECT_ID":"2021-090K","EPOCH":"2025-12-09T17:03:56.168928","MEAN_MOTION":13.19724492,"ECCENTRICITY":0.00017409,"INCLINATION":87.919,"RA_OF_ASC_NODE":342.6873,"ARG_OF_PERICENTER":80.5663,"MEAN_ANOMALY":279.5666,"EPHEMERIS_TYPE":0,"CLASSIFICATION_TYPE":"U","NORAD_CAT_ID":49288,"ELEMENT_SET_NO":999,"REV_AT_EPOCH":20192,"BSTAR":0.00011993251,"MEAN_MOTION_DOT":6.1e-7,"MEAN_MOTION_DDOT":0},{"OBJECT_NAME":"ONEWEB-0363","OBJECT_ID":"2021-090L","EPOCH":"2025-12-10T07:16:15.833856","MEAN_MOTION":13.20771231,"ECCENTRICITY":0.000185,"INCLINATION":87.9202,"RA_OF_ASC_NODE":312.1059,"ARG_OF_PERICENTER":94.2967,"MEAN_ANOMALY":265.8378,"EPHEMERIS_TYPE":0,"CLASSIFICATION_TYPE":"U","NORAD_CAT_ID":49289,"ELEMENT_SET_NO":999,"REV_AT_EPOCH":20537,"BSTAR":3.2669321e-5,"MEAN_MOTION_DOT":2.6e-7,"MEAN_MOTION_DDOT":0},{"OBJECT_NAME":"ONEWEB-0364","OBJECT_ID":"2021-090M","EPOCH":"2025-12-10T04:32:37.330944","MEAN_MOTION":13.20770625,"ECCENTRICITY":0.00018496,"INCLINATION":87.919,"RA_OF_ASC_NODE":312.1527,"ARG_OF_PERICENTER":87.0999,"MEAN_ANOMALY":273.0346,"EPHEMERIS_TYPE":0,"CLASSIFICATION_TYPE":"U","NORAD_CAT_ID":49290,"ELEMENT_SET_NO":999,"REV_AT_EPOCH":20649,"BSTAR":0.0001110124,"MEAN_MOTION_DOT":5.8e-7,"MEAN_MOTION_DDOT":0},{"OBJECT_NAME":"ONEWEB-0365","OBJECT_ID":"2021-090N","EPOCH":"2025-12-10T00:34:17.467392","MEAN_MOTION":13.19724458,"ECCENTRICITY":0.00018469,"INCLINATION":87.921,"RA_OF_ASC_NODE":342.5898,"ARG_OF_PERICENTER":86.1941,"MEAN_ANOMALY":273.9403,"EPHEMERIS_TYPE":0,"CLASSIFICATION_TYPE":"U","NORAD_CAT_ID":49291,"ELEMENT_SET_NO":999,"REV_AT_EPOCH":20147,"BSTAR":0.00024076981,"MEAN_MOTION_DOT":1.09e-6,"MEAN_MOTION_DDOT":0},{"OBJECT_NAME":"ONEWEB-0366","OBJECT_ID":"2021-090P","EPOCH":"2025-12-10T04:58:11.808768","MEAN_MOTION":13.14502889,"ECCENTRICITY":0.00017374,"INCLINATION":87.8982,"RA_OF_ASC_NODE":327.3699,"ARG_OF_PERICENTER":87.8512,"MEAN_ANOMALY":272.2816,"EPHEMERIS_TYPE":0,"CLASSIFICATION_TYPE":"U","NORAD_CAT_ID":49292,"ELEMENT_SET_NO":999,"REV_AT_EPOCH":20273,"BSTAR":-0.00026806691,"MEAN_MOTION_DOT":-8.7e-7,"MEAN_MOTION_DDOT":0},{"OBJECT_NAME":"ONEWEB-0367","OBJECT_ID":"2021-090Q","EPOCH":"2025-12-10T07:13:59.397888","MEAN_MOTION":13.20770226,"ECCENTRICITY":0.0001834,"INCLINATION":87.9204,"RA_OF_ASC_NODE":312.1057,"ARG_OF_PERICENTER":76.671,"MEAN_ANOMALY":283.4628,"EPHEMERIS_TYPE":0,"CLASSIFICATION_TYPE":"U","NORAD_CAT_ID":49293,"ELEMENT_SET_NO":999,"REV_AT_EPOCH":20489,"BSTAR":-2.655273e-6,"MEAN_MOTION_DOT":1.2e-7,"MEAN_MOTION_DDOT":0},{"OBJECT_NAME":"ONEWEB-0368","OBJECT_ID":"2021-090R","EPOCH":"2025-12-10T04:46:16.389984","MEAN_MOTION":13.20770274,"ECCENTRICITY":0.00025611,"INCLINATION":87.9196,"RA_OF_ASC_NODE":312.156,"ARG_OF_PERICENTER":91.5422,"MEAN_ANOMALY":268.6005,"EPHEMERIS_TYPE":0,"CLASSIFICATION_TYPE":"U","NORAD_CAT_ID":49294,"ELEMENT_SET_NO":999,"REV_AT_EPOCH":20603,"BSTAR":0.00013249892,"MEAN_MOTION_DOT":6.7e-7,"MEAN_MOTION_DDOT":0},{"OBJECT_NAME":"ONEWEB-0369","OBJECT_ID":"2021-090S","EPOCH":"2025-12-09T11:43:13.261152","MEAN_MOTION":13.19723738,"ECCENTRICITY":0.00018815,"INCLINATION":87.9197,"RA_OF_ASC_NODE":342.7238,"ARG_OF_PERICENTER":87.7016,"MEAN_ANOMALY":272.4332,"EPHEMERIS_TYPE":0,"CLASSIFICATION_TYPE":"U","NORAD_CAT_ID":49295,"ELEMENT_SET_NO":999,"REV_AT_EPOCH":20139,"BSTAR":0.00012022674,"MEAN_MOTION_DOT":6.1e-7,"MEAN_MOTION_DDOT":0},{"OBJECT_NAME":"ONEWEB-0370","OBJECT_ID":"2021-090T","EPOCH":"2025-12-10T07:27:37.095264","MEAN_MOTION":13.20770437,"ECCENTRICITY":0.00015566,"INCLINATION":87.9192,"RA_OF_ASC_NODE":312.1087,"ARG_OF_PERICENTER":75.6341,"MEAN_ANOMALY":284.4965,"EPHEMERIS_TYPE":0,"CLASSIFICATION_TYPE":"U","NORAD_CAT_ID":49296,"ELEMENT_SET_NO":999,"REV_AT_EPOCH":20493,"BSTAR":6.5206277e-5,"MEAN_MOTION_DOT":3.9e-7,"MEAN_MOTION_DDOT":0},{"OBJECT_NAME":"ONEWEB-0371","OBJECT_ID":"2021-090U","EPOCH":"2025-12-10T00:38:50.044704","MEAN_MOTION":13.1972416,"ECCENTRICITY":0.00017955,"INCLINATION":87.9199,"RA_OF_ASC_NODE":342.604,"ARG_OF_PERICENTER":85.5071,"MEAN_ANOMALY":274.6266,"EPHEMERIS_TYPE":0,"CLASSIFICATION_TYPE":"U","NORAD_CAT_ID":49297,"ELEMENT_SET_NO":999,"REV_AT_EPOCH":20150,"BSTAR":0.0001493487,"MEAN_MOTION_DOT":7.3e-7,"MEAN_MOTION_DDOT":0},{"OBJECT_NAME":"ONEWEB-0372","OBJECT_ID":"2021-090V","EPOCH":"2025-12-10T07:11:29.872320","MEAN_MOTION":13.20769252,"ECCENTRICITY":0.00019381,"INCLINATION":87.9192,"RA_OF_ASC_NODE":312.1107,"ARG_OF_PERICENTER":81.3439,"MEAN_ANOMALY":278.7914,"EPHEMERIS_TYPE":0,"CLASSIFICATION_TYPE":"U","NORAD_CAT_ID":49298,"ELEMENT_SET_NO":999,"REV_AT_EPOCH":20490,"BSTAR":-3.328898e-6,"MEAN_MOTION_DOT":1.2e-7,"MEAN_MOTION_DDOT":0},{"OBJECT_NAME":"ONEWEB-0373","OBJECT_ID":"2021-090W","EPOCH":"2025-12-10T04:12:08.648640","MEAN_MOTION":13.20772012,"ECCENTRICITY":0.00017157,"INCLINATION":87.9191,"RA_OF_ASC_NODE":312.1488,"ARG_OF_PERICENTER":85.065,"MEAN_ANOMALY":275.0679,"EPHEMERIS_TYPE":0,"CLASSIFICATION_TYPE":"U","NORAD_CAT_ID":49299,"ELEMENT_SET_NO":999,"REV_AT_EPOCH":20607,"BSTAR":-0.00048424998,"MEAN_MOTION_DOT":-1.84e-6,"MEAN_MOTION_DDOT":0},{"OBJECT_NAME":"ONEWEB-0374","OBJECT_ID":"2021-090X","EPOCH":"2025-12-10T04:39:54.184032","MEAN_MOTION":13.1450458,"ECCENTRICITY":0.00020544,"INCLINATION":87.899,"RA_OF_ASC_NODE":327.3502,"ARG_OF_PERICENTER":101.0007,"MEAN_ANOMALY":259.1354,"EPHEMERIS_TYPE":0,"CLASSIFICATION_TYPE":"U","NORAD_CAT_ID":49300,"ELEMENT_SET_NO":999,"REV_AT_EPOCH":20273,"BSTAR":6.078115e-5,"MEAN_MOTION_DOT":3.5e-7,"MEAN_MOTION_DDOT":0},{"OBJECT_NAME":"ONEWEB-0375","OBJECT_ID":"2021-090Y","EPOCH":"2025-12-10T07:32:09.788352","MEAN_MOTION":13.20768275,"ECCENTRICITY":0.00016614,"INCLINATION":87.919,"RA_OF_ASC_NODE":312.1013,"ARG_OF_PERICENTER":101.7178,"MEAN_ANOMALY":258.4142,"EPHEMERIS_TYPE":0,"CLASSIFICATION_TYPE":"U","NORAD_CAT_ID":49301,"ELEMENT_SET_NO":999,"REV_AT_EPOCH":20559,"BSTAR":0.00011968613,"MEAN_MOTION_DOT":6.2e-7,"MEAN_MOTION_DDOT":0},{"OBJECT_NAME":"ONEWEB-0376","OBJECT_ID":"2021-090Z","EPOCH":"2025-12-10T00:36:32.380128","MEAN_MOTION":13.19727589,"ECCENTRICITY":0.00019622,"INCLINATION":87.9205,"RA_OF_ASC_NODE":342.5918,"ARG_OF_PERICENTER":84.3364,"MEAN_ANOMALY":275.7992,"EPHEMERIS_TYPE":0,"CLASSIFICATION_TYPE":"U","NORAD_CAT_ID":49302,"ELEMENT_SET_NO":999,"REV_AT_EPOCH":20150,"BSTAR":0.00024093758,"MEAN_MOTION_DOT":1.09e-6,"MEAN_MOTION_DDOT":0},{"OBJECT_NAME":"ONEWEB-0377","OBJECT_ID":"2021-090AA","EPOCH":"2025-12-10T07:11:53.111328","MEAN_MOTION":13.20773466,"ECCENTRICITY":0.00016017,"INCLINATION":87.9201,"RA_OF_ASC_NODE":312.1053,"ARG_OF_PERICENTER":85.3581,"MEAN_ANOMALY":274.7736,"EPHEMERIS_TYPE":0,"CLASSIFICATION_TYPE":"U","NORAD_CAT_ID":49303,"ELEMENT_SET_NO":999,"REV_AT_EPOCH":20558,"BSTAR":-4.7715462e-5,"MEAN_MOTION_DOT":-6.0e-8,"MEAN_MOTION_DDOT":0},{"OBJECT_NAME":"ONEWEB-0378","OBJECT_ID":"2021-090AB","EPOCH":"2025-12-09T20:49:11.470368","MEAN_MOTION":13.20770089,"ECCENTRICITY":0.00018344,"INCLINATION":87.9198,"RA_OF_ASC_NODE":312.2061,"ARG_OF_PERICENTER":87.7791,"MEAN_ANOMALY":272.3552,"EPHEMERIS_TYPE":0,"CLASSIFICATION_TYPE":"U","NORAD_CAT_ID":49304,"ELEMENT_SET_NO":999,"REV_AT_EPOCH":20479,"BSTAR":0.00036429363,"MEAN_MOTION_DOT":1.61e-6,"MEAN_MOTION_DDOT":0}]
