ONEWEB-0362             
1 49288U 21090K   25343.71106677  .00000061  00000+0  11993-3 0  9997
2 49288  87.9190 342.6873 0001740  80.5663 279.5666 13.19724492201927
ONEWEB-0363             
1 49289U 21090L   25344.30296104  .00000026  00000+0  32669-4 0  9994
2 49289  87.9202 312.1059 0001850  94.2967 265.8378 13.20771231205377
ONEWEB-0364             
1 49290U 21090M   25344.18932096  .00000058  00000+0  11101-3 0  9991
2 49290  87.9190 312.1527 0001849  87.0999 273.0346 13.20770625206494
ONEWEB-0365             
1 49291U 21090N   25344.02381328  .00000109  00000+0  24077-3 0  9994
2 49291  87.9210 342.5898 0001846  86.1941 273.9403 13.19724458201477
ONEWEB-0366             
1 49292U 21090P   25344.20708112 -.00000087  00000+0 -26807-3 0  9999
2 49292  87.8982 327.3699 0001737  87.8512 272.2816 13.14502889202731
ONEWEB-0367             
1 49293U 21090Q   25344.30138192  .00000012  00000+0 -26553-5 0  9993
2 49293  87.9204 312.1057 0001834  76.6710 283.4628 13.20770226204897
ONEWEB-0368             
1 49294U 21090R   25344.19880081  .00000067  00000+0  13250-3 0  9999
2 49294  87.9196 312.1560 0002561  91.5422 268.6005 13.20770274206036
ONEWEB-0369             
1 49295U 21090S   25343.48834793  .00000061  00000+0  12023-3 0  9991
2 49295  87.9197 342.7238 0001881  87.7016 272.4332 13.19723738201390
ONEWEB-0370             
1 49296U 21090T   25344.31084601  .00000039  00000+0  65206-4 0  9997
2 49296  87.9192 312.1087 0001556  75.6341 284.4965 13.20770437204933
ONEWEB-0371             
1 49297U 21090U   25344.02696811  .00000073  00000+0  14935-3 0  9998
2 49297  87.9199 342.6040 0001795  85.5071 274.6266 13.19724160201508
ONEWEB-0372             
1 49298U 21090V   25344.29965130  .00000012  00000+0 -33289-5 0  9990
2 49298  87.9192 312.1107 0001938  81.3439 278.7914 13.20769252204904
ONEWEB-0373             
1 49299U 21090W   25344.17510010 -.00000184  00000+0 -48425-3 0  9998
2 49299  87.9191 312.1488 0001715  85.0650 275.0679 13.20772012206071
ONEWEB-0374             
1 49300U 21090X   25344.19437713  .00000035  00000+0  60781-4 0  9994
2 49300  87.8990 327.3502 0002054 101.0007 259.1354 13.14504580202735
ONEWEB-0375             
1 49301U 21090Y   25344.31400218  .00000062  00000+0  11969-3 0  9992
2 49301  87.9190 312.1013 0001661 101.7178 258.4142 13.20768275205591
ONEWEB-0376             
1 49302U 21090Z   25344.02537477  .00000109  00000+0  24094-3 0  9994
2 49302  87.9205 342.5918 0001962  84.3364 275.7992 13.19727589201500
ONEWEB-0377             
1 49303U 21090AA  25344.29992027 -.00000006  00000+0 -47715-4 0  9994
2 49303  87.9201 312.1053 0001601  85.3581 274.7736 13.20773466205586
ONEWEB-0378             
1 49304U 21090AB  25343.86749387  .00000161  00000+0  36429-3 0  9995
2 49304  87.9198 312.2061 0001834  87.7791 272.3552 13.20770089204799
